COSMOS 2513             
1 41121U 15075A   22302.74304598 -.00000135  00000+0  00000+0 0  9994
2 41121   0.0562  98.4627 0002894 130.5425 156.8294  1.00271732 25222
EXPRESS-AMU1            
1 41191U 15082A   22302.71577090  .00000160  00000+0  00000+0 0  9992
2 41191   0.0148 264.8285 0002506 319.4075 107.5969  1.00268935 24960
GAOFEN 4                
1 41194U 15083A   22302.86811487 -.00000332  00000+0  00000+0 0  9995
2 41194   0.0745 286.4752 0006246 273.3899 256.5831  1.00272572 25227
BELINTERSAT-1           
1 41238U 16001A   22302.79146493  .00000110  00000+0  00000+0 0  9998
2 41238   0.0440  85.3852 0001521 114.1191 175.0251  1.00272978 24931
IRNSS-1E                
1 41241U 16003A   22302.83181947 -.00000284  00000+0  00000+0 0  9995
2 41241  30.2796  82.5309 0021983 178.6762 188.2142  1.00275978 24784
EUTELSAT 9B             
1 41310U 16005A   22302.45119008  .00000068  00000+0  00000+0 0  9990
2 41310   0.0730  74.8690 0004962 168.0904 326.2590  1.00272512 24816
SES-9                   
1 41380U 16013A   22301.97271799 -.00000338  00000+0  00000+0 0  9999
2 41380   0.0208 283.8406 0001235 214.7511 357.2051  1.00270128 24135
EUTELSAT 65 WEST A      
1 41382U 16014A   22302.53521661 -.00000271  00000+0  00000+0 0  9997
2 41382   0.0662  49.6512 0001873 155.5532 320.1437  1.00273050 24246
IRNSS-1F                
1 41384U 16015A   22302.71577203  .00000166  00000+0  00000+0 0  9995
2 41384   2.3643 147.1890 0019598 177.9687   2.9258  1.00271665 24366
BEIDOU IGSO-6           
1 41434U 16021A   22302.85055552 -.00000148  00000+0  00000+0 0  9992
2 41434  58.2982  51.4480 0046443 216.1090 169.6078  1.00257678 24182
IRNSS-1G                
1 41469U 16027A   22302.68190964 -.00000329  00000+0  00000+0 0  9995
2 41469   2.2820 149.7372 0000983   2.9294 260.3383  1.00266786 23870
JCSAT-2B                
1 41471U 16028A   22301.85327284 -.00000157  00000+0  00000+0 0  9993
2 41471   0.0174 248.3216 0000612 323.0706 286.9898  1.00270313 23818
THAICOM 8               
1 41552U 16031A   22302.83942753 -.00000119  00000+0  00000+0 0  9998
2 41552   0.0684  57.4171 0000241 199.2150 162.3174  1.00271392 23415
INTELSAT 31 (IS-31)     
1 41581U 16035A   22301.43271777 -.00000141  00000+0  00000+0 0  9995
2 41581   0.0128 243.0527 0001427 327.2778 247.1707  1.00270118 23378
BEIDOU-2 G7             
1 41586U 16037A   22302.83200396 -.00000350  00000+0  00000+0 0  9998
2 41586   1.6729  68.7777 0008034 353.5277  25.9275  1.00273440 23499
ABS-2A (MONGOLSAT-1)    
1 41588U 16038A   22302.83730652 -.00000080  00000+0  00000+0 0  9994
2 41588   0.0182 262.4346 0001849 214.6239 297.2398  1.00268043 23396
EUTELSAT 117 WEST B     
1 41589U 16038B   22300.99791681 -.00000001  00000+0  00000+0 0  9992
2 41589   0.0149  99.5179 0000277 169.6844   9.4043  1.00272561 23354
BRISAT                  
1 41591U 16039A   22302.86299169 -.00000193  00000+0  00000+0 0  9990
2 41591   0.0149 262.7028 0001995 303.2570 293.4063  1.00270351 23312
ECHOSTAR 18             
1 41592U 16039B   22301.54007959 -.00000273  00000+0  00000+0 0  9998
2 41592   0.0130 240.4031 0001443 330.7508 318.8247  1.00269444 23311
MUOS-5                  
1 41622U 16041A   22302.63566799 -.00000130  00000+0  00000+0 0  9990
2 41622   5.3023 299.9018 0200951 239.8037 342.0512  1.00271094 23788
TIANTONG-1 1            
1 41725U 16048A   22302.86924389 -.00000315  00000+0  00000+0 0  9994
2 41725   2.2546   4.3313 0004825 303.2077 145.0111  1.00272873 22978
JCSAT-16                
1 41729U 16050A   22302.63895334 -.00000249  00000+0  00000+0 0  9999
2 41729   0.0817  88.0437 0003636 168.6564 104.3020  1.00270287 22769
USA 270                 
1 41744U 16052A   22300.33186455 -.00000283  00000+0  00000+0 0  9998
2 41744   0.7795  94.2065 0000528 305.9723 255.5208  1.00136876  5419
USA 271                 
1 41745U 16052B   22299.98611111  .00000099  00000+0  00000+0 0  9993
2 41745   0.7233  95.2630 0000127 234.4784 112.1172  1.00416712  5412
INTELSAT 36 (IS-36)     
1 41747U 16053A   22301.98938359 -.00000018  00000+0  00000+0 0  9998
2 41747   0.0113 315.7571 0001684  59.0772  87.1790  1.00271763 22641
INTELSAT 33E (IS-33E)   
1 41748U 16053B   22302.87549348  .00000052  00000+0  00000+0 0  9991
2 41748   0.0158 273.0173 0002038 303.4399 196.9231  1.00272529 22921
INSAT-3DR               
1 41752U 16054A   22300.46205479 -.00000066  00000+0  00000+0 0  9990
2 41752   0.1474  90.6407 0012642 173.9689  11.5599  1.00271831 22491
GSAT-18                 
1 41793U 16060A   22299.39354934 -.00000064  00000+0  00000+0 0  9990
2 41793   0.0589  83.1621 0000590 181.1659 346.1091  1.00272347 22200
SKY MUSTER 2 (NBN1B)    
1 41794U 16060B   22302.21000566 -.00000238  00000+0  00000+0 0  9999
2 41794   0.0136 262.3070 0001314 302.0946  53.5622  1.00271049 22214
HIMAWARI-9              
1 41836U 16064A   22302.19698587 -.00000269  00000+0  00000+0 0  9997
2 41836   0.0314 116.8793 0000499 104.0907  28.2073  1.00268215 21886
SHIJIAN-17 (SJ-17)      
1 41838U 16065A   22302.95039743 -.00000259  00000+0  00000+0 0  9996
2 41838   2.3638  88.0850 0002875 240.7265 145.7993  1.00268573 21918
GOES 16                 
1 41866U 16071A   22302.52536720 -.00000243  00000+0  00000+0 0  9997
2 41866   0.0505 278.2947 0000492 333.3780 260.1291  1.00270628 21817
TIANLIAN 1-04           
1 41869U 16072A   22302.81229833  .00000035  00000+0  00000+0 0  9995
2 41869   0.1369 277.9158 0025017 218.9349  10.5523  1.00268861 22012
WGS F8 (USA 272)        
1 41879U 16075A   22301.85327284 -.00000195  00000+0  00000+0 0  9999
2 41879   0.0121 270.4009 0000413  94.8383 128.9260  1.00270253 21528
FENGYUN 4A              
1 41882U 16077A   22302.99377176 -.00000327  00000+0  00000+0 0  9993
2 41882   0.1476 287.5915 0004611 116.2454  96.9122  1.00271203 21687
ECHOSTAR 19             
1 41893U 16079A   22301.56487472 -.00000129  00000+0  00000+0 0  9990
2 41893   0.0177 240.9957 0001255 320.9092 301.2645  1.00271060 21401
JCSAT-110A (JCSAT-15)   
1 41903U 16082A   22301.53860706 -.00000342  00000+0  00000+0 0  9995
2 41903   0.0181 243.2543 0001197 352.9367 104.6631  1.00269984 21446
STAR ONE D1             
1 41904U 16082B   22302.51769294 -.00000206  00000+0  00000+0 0  9994
2 41904   0.0158 127.7362 0002091  88.0443 284.4387  1.00273064 21474
TJS-2                   
1 41911U 17001A   22302.87395828 -.00000003  00000+0  00000+0 0  9996
2 41911   0.1313 294.1940 0005502 280.5898 204.5379  1.00269942 21430
SBIRS GEO-4 (USA 273)   
1 41937U 17004A   22302.70813286  .00000133  00000+0  00000+0 0  9995
2 41937   2.0918 321.9126 0002258 246.9484 284.7084  1.00271936 21302
HISPASAT 36W-1          
1 41942U 17006A   22302.02827147 -.00000237  00000+0  00000+0 0  9995
2 41942   0.0021 344.3926 0001029 231.4698 155.6957  1.00270866 20911
TELKOM 3S               
1 41944U 17007A   22302.83452203 -.00000359  00000+0  00000+0 0  9999
2 41944   0.0189 259.5668 0002172 308.2376 248.7910  1.00272470 20842
INTELSAT 32E (IS-32E)   
1 41945U 17007B   22301.44300743 -.00000259  00000+0  00000+0 0  9996
2 41945   0.0119 246.5148 0000457 244.2431  22.3422  1.00271994 20923
ECHOSTAR 23             
1 42070U 17014A   22302.00465948 -.00000050  00000+0  00000+0 0  9995
2 42070   0.0163 231.1112 0001878 342.5143  75.5034  1.00270762 20610
WGS F9 (USA 275)        
1 42075U 17016A   22301.48591168 -.00000087  00000+0  00000+0 0  9997
2 42075   0.0185 245.2427 0000613 242.0717  72.4215  1.00268881 20583
SES-10                  
1 42432U 17017A   22301.79703796 -.00000264  00000+0  00000+0 0  9998
2 42432   0.0128 287.4840 0002622 290.8322  38.8643  1.00272317 20433
CHINASAT 16 (SJ-13)     
1 42662U 17018A   22301.60508483 -.00000343  00000+0  00000+0 0  9998
2 42662   0.0716  79.9378 0007307 151.4166 133.9122  1.00267420 20432
KOREASAT 7              
1 42691U 17023A   22302.83417481 -.00000358  00000+0  00000+0 0  9995
2 42691   0.0327  72.0129 0002025 144.8694 237.4790  1.00273080 20085
SGDC                    
1 42692U 17023B   22302.10398220 -.00000242  00000+0  00000+0 0  9997
2 42692   0.0443  75.6121 0002163 142.9203 141.4899  1.00269661 20101
GSAT-9                  
1 42695U 17024A   22302.85467736 -.00000282  00000+0  00000+0 0  9996
2 42695   0.0670  95.5121 0002547 110.7587 236.8796  1.00267792 20008
INMARSAT 5-F4           
1 42698U 17025A   22302.15535427  .00000081  00000+0  00000+0 0  9992
2 42698   0.0186 260.8124 0000383  80.4677 168.6591  1.00270517 19969
SES-15                  
1 42709U 17026A   22302.51069948  .00000065  00000+0  00000+0 0  9998
2 42709   0.0296   6.6201 0000265 169.8414 276.0795  1.00267596 20848
QZS-2 (MICHIBIKI-2)     
1 42738U 17028A   22302.77757632 -.00000192  00000+0  00000+0 0  9996
2 42738  41.5552 262.2721 0744619 270.8428 282.6319  1.00250473 19847
VIASAT-2                
1 42740U 17029A   22302.10882595 -.00000258  00000+0  00000+0 0  9997
2 42740   0.0210 269.6274 0000206 208.1612 248.9221  1.00271001 19871
EUTELSAT 172B           
1 42741U 17029B   22302.81229833 -.00000001  00000+0  00000+0 0  9992
2 42741   0.0440 156.9944 0000323 276.5130  69.0659  1.00271626 20426
GSAT-19                 
1 42747U 17031A   22302.94451205  .00000129  00000+0  00000+0 0  9995
2 42747   0.0780  91.6400 0004913  66.6229 267.8961  1.00270099 19837
ECHOSTAR 21             
1 42749U 17032A   22302.24276609  .00000069  00000+0  00000+0 0  9997
2 42749   3.7084 311.8101 0002477 253.0211 290.4007  1.00270339 19804
BULGARIASAT-1           
1 42801U 17038A   22302.35605053  .00000017  00000+0  00000+0 0  9996
2 42801   0.0320 105.1656 0002717 115.8427 306.7500  1.00271694 19529
HELLAS-SAT 3            
1 42814U 17040A   22302.93649484  .00000156  00000+0  00000+0 0  9997
2 42814   0.0496  28.4510 0000367 173.0493 212.9044  1.00273129 19561
GSAT-17                 
1 42815U 17040B   22302.84860363 -.00000254  00000+0  00000+0 0  9999
2 42815   0.0304  87.9330 0006166 152.0990 197.1434  1.00270187 19481
